MALLIGYONG-1            
1 58400U 23179A   24013.16253691  .00008550  00000+0  37729-3 0  9990
2 58400  97.4249 262.2487 0017623  92.8511 267.4743 15.21870138  7994
